{"type": "FeatureCollection", "features": [ {"type": "Feature", "properties": {"norad_id": 34626, "name": "COSMOS 2251 DEB", "group": "cosmos-2251-debris", "lat": -58.403432792356945, "lon": -172.84616148225405, "alt_km": 679.5810791350132, "timestamp": "2025-12-04T17:48:40.559716+00:00", "meta": {"OBJECT_NAME": "COSMOS 2251 DEB", "OBJECT_ID": "1993-036WX", "EPOCH": "2025-12-03T10:25:41.739168", "MEAN_MOTION": 14.72014634, "ECCENTRICITY": 0.00261929, "INCLINATION": 74.048, "RA_OF_ASC_NODE": 341.9842, "ARG_OF_PERICENTER": 73.1994, "MEAN_ANOMALY": 82.4621, "EPHEMERIS_TYPE": 0, "CLASSIFICATION_TYPE": "U", "NORAD_CAT_ID": 34626, "ELEMENT_SET_NO": 999, "REV_AT_EPOCH": 89007, "BSTAR": 0.0012403674, "MEAN_MOTION_DOT": 7.808e-05, "MEAN_MOTION_DDOT": 0}, "tle": {"line1": "1 34626U 93036WX  25337.43451087  .00007808  00000+0  12404-2 0  9999", "line2": "2 34626  74.0480 341.9842 0026192  73.1994  82.4621 14.72014634890079"}}, "geometry": {"type": "Point", "coordinates": [-172.84616148225405, -58.403432792356945]}}, {"type": "Feature", "properties": {"norad_id": 34634, "name": "COSMOS 2251 DEB", "group": "cosmos-2251-debris", "lat": 16.525703226598907, "lon": -134.7527962735652, "alt_km": 676.0169067479919, "timestamp": "2025-12-04T17:48:40.559726+00:00", "meta": {"OBJECT_NAME": "COSMOS 2251 DEB", "OBJECT_ID": "1993-036XF", "EPOCH": "2025-12-04T05:49:27.549408", "MEAN_MOTION": 14.55617499, "ECCENTRICITY": 0.00446301, "INCLINATION": 74.0532, "RA_OF_ASC_NODE": 51.0588, "ARG_OF_PERICENTER": 160.9075, "MEAN_ANOMALY": 265.5592, "EPHEMERIS_TYPE": 0, "CLASSIFICATION_TYPE": "U", "NORAD_CAT_ID": 34634, "ELEMENT_SET_NO": 999, "REV_AT_EPOCH": 88658, "BSTAR": 0.00085964528, "MEAN_MOTION_DOT": 3.775e-05, "MEAN_MOTION_DDOT": 0}, "tle": {"line1": "1 34634U 93036XF  25338.24267997  .00003775  00000+0  85965-3 0  9995", "line2": "2 34634  74.0532  51.0588 0044630 160.9075 265.5592 14.55617499886585"}}, "geometry": {"type": "Point", "coordinates": [-134.7527962735652, 16.525703226598907]}}, {"type": "Feature", "properties": {"norad_id": 34635, "name": "COSMOS 2251 DEB", "group": "cosmos-2251-debris", "lat": 22.487990061065315, "lon": 92.96907470643612, "alt_km": 680.9655264149733, "timestamp": "2025-12-04T17:48:40.559737+00:00", "meta": {"OBJECT_NAME": "COSMOS 2251 DEB", "OBJECT_ID": "1993-036XG", "EPOCH": "2025-12-04T03:16:54.982272", "MEAN_MOTION": 14.6805181, "ECCENTRICITY": 0.00295066, "INCLINATION": 74.0457, "RA_OF_ASC_NODE": 87.3368, "ARG_OF_PERICENTER": 158.8748, "MEAN_ANOMALY": 266.7454, "EPHEMERIS_TYPE": 0, "CLASSIFICATION_TYPE": "U", "NORAD_CAT_ID": 34635, "ELEMENT_SET_NO": 999, "REV_AT_EPOCH": 73093, "BSTAR": 0.0032026801, "MEAN_MOTION_DOT": 0.00018519, "MEAN_MOTION_DDOT": 0}, "tle": {"line1": "1 34635U 93036XG  25338.13674748  .00018519  00000+0  32027-2 0  9992", "line2": "2 34635  74.0457  87.3368 0029506 158.8748 266.7454 14.68051810730938"}}, "geometry": {"type": "Point", "coordinates": [92.96907470643612, 22.487990061065315]}}, {"type": "Feature", "properties": {"norad_id": 34637, "name": "COSMOS 2251 DEB", "group": "cosmos-2251-debris", "lat": 73.84141289537541, "lon": -162.7708773304203, "alt_km": 692.7095248439009, "timestamp": "2025-12-04T17:48:40.559747+00:00", "meta": {"OBJECT_NAME": "COSMOS 2251 DEB", "OBJECT_ID": "1993-036XJ", "EPOCH": "2025-12-03T08:38:20.779008", "MEAN_MOTION": 14.59934348, "ECCENTRICITY": 0.0050664, "INCLINATION": 74.0477, "RA_OF_ASC_NODE": 119.0417, "ARG_OF_PERICENTER": 191.6838, "MEAN_ANOMALY": 194.9044, "EPHEMERIS_TYPE": 0, "CLASSIFICATION_TYPE": "U", "NORAD_CAT_ID": 34637, "ELEMENT_SET_NO": 999, "REV_AT_EPOCH": 88390, "BSTAR": 0.0016283, "MEAN_MOTION_DOT": 7.923e-05, "MEAN_MOTION_DDOT": 0}, "tle": {"line1": "1 34637U 93036XJ  25337.35996272  .00007923  00000+0  16283-2 0  9999", "line2": "2 34637  74.0477 119.0417 0050664 191.6838 194.9044 14.59934348883903"}}, "geometry": {"type": "Point", "coordinates": [-162.7708773304203, 73.84141289537541]}}, {"type": "Feature", "properties": {"norad_id": 34641, "name": "COSMOS 2251 DEB", "group": "cosmos-2251-debris", "lat": -46.65161383689609, "lon": 79.00264392573891, "alt_km": 720.2708692650094, "timestamp": "2025-12-04T17:48:40.559758+00:00", "meta": {"OBJECT_NAME": "COSMOS 2251 DEB", "OBJECT_ID": "1993-036XN", "EPOCH": "2025-12-04T02:19:42.190176", "MEAN_MOTION": 14.51887703, "ECCENTRICITY": 0.0017602, "INCLINATION": 73.8383, "RA_OF_ASC_NODE": 98.1232, "ARG_OF_PERICENTER": 15.6609, "MEAN_ANOMALY": 164.8193, "EPHEMERIS_TYPE": 0, "CLASSIFICATION_TYPE": "U", "NORAD_CAT_ID": 34641, "ELEMENT_SET_NO": 999, "REV_AT_EPOCH": 88130, "BSTAR": 0.002167539, "MEAN_MOTION_DOT": 8.736e-05, "MEAN_MOTION_DDOT": 0}, "tle": {"line1": "1 34641U 93036XN  25338.09701609  .00008736  00000+0  21675-2 0  9998", "line2": "2 34641  73.8383  98.1232 0017602  15.6609 164.8193 14.51887703881306"}}, "geometry": {"type": "Point", "coordinates": [79.00264392573891, -46.65161383689609]}}, {"type": "Feature", "properties": {"norad_id": 34642, "name": "COSMOS 2251 DEB", "group": "cosmos-2251-debris", "lat": 58.12922284836123, "lon": 146.18209391776708, "alt_km": 807.8580043642833, "timestamp": "2025-12-04T17:48:40.559768+00:00", "meta": {"OBJECT_NAME": "COSMOS 2251 DEB", "OBJECT_ID": "1993-036XP", "EPOCH": "2025-12-03T19:46:36.748416", "MEAN_MOTION": 13.98929953, "ECCENTRICITY": 0.02080507, "INCLINATION": 74.0052, "RA_OF_ASC_NODE": 355.2445, "ARG_OF_PERICENTER": 177.1299, "MEAN_ANOMALY": 0.8483, "EPHEMERIS_TYPE": 0, "CLASSIFICATION_TYPE": "U", "NORAD_CAT_ID": 34642, "ELEMENT_SET_NO": 999, "REV_AT_EPOCH": 85168, "BSTAR": 0.001499188, "MEAN_MOTION_DOT": 2.582e-05, "MEAN_MOTION_DDOT": 0}, "tle": {"line1": "1 34642U 93036XP  25337.82403644  .00002582  00000+0  14992-2 0  9994", "line2": "2 34642  74.0052 355.2445 0208050 177.1299   0.8483 13.98929953851687"}}, "geometry": {"type": "Point", "coordinates": [146.18209391776708, 58.12922284836123]}}, {"type": "Feature", "properties": {"norad_id": 34671, "name": "COSMOS 2251 DEB", "group": "cosmos-2251-debris", "lat": -11.762986732417119, "lon": 146.31137169441152, "alt_km": 679.8369813749177, "timestamp": "2025-12-04T17:48:40.559779+00:00", "meta": {"OBJECT_NAME": "COSMOS 2251 DEB", "OBJECT_ID": "1993-036XR", "EPOCH": "2025-12-04T05:33:55.158624", "MEAN_MOTION": 14.66684389, "ECCENTRICITY": 0.00120686, "INCLINATION": 74.0248, "RA_OF_ASC_NODE": 150.7156, "ARG_OF_PERICENTER": 229.4631, "MEAN_ANOMALY": 305.2449, "EPHEMERIS_TYPE": 0, "CLASSIFICATION_TYPE": "U", "NORAD_CAT_ID": 34671, "ELEMENT_SET_NO": 999, "REV_AT_EPOCH": 88172, "BSTAR": 0.0034749631, "MEAN_MOTION_DOT": 0.00019383, "MEAN_MOTION_DDOT": 0}, "tle": {"line1": "1 34671U 93036XR  25338.23188841  .00019383  00000+0  34750-2 0  9992", "line2": "2 34671  74.0248 150.7156 0012068 229.4631 305.2449 14.66684389881725"}}, "geometry": {"type": "Point", "coordinates": [146.31137169441152, -11.762986732417119]}}, {"type": "Feature", "properties": {"norad_id": 34672, "name": "COSMOS 2251 DEB", "group": "cosmos-2251-debris", "lat": -36.512883590972166, "lon": -51.95121885018244, "alt_km": 771.2708244317482, "timestamp": "2025-12-04T17:48:40.559789+00:00", "meta": {"OBJECT_NAME": "COSMOS 2251 DEB", "OBJECT_ID": "1993-036XS", "EPOCH": "2025-12-03T05:16:26.844096", "MEAN_MOTION": 14.36383689, "ECCENTRICITY": 0.0023434, "INCLINATION": 74.0334, "RA_OF_ASC_NODE": 323.0813, "ARG_OF_PERICENTER": 37.198, "MEAN_ANOMALY": 335.8708, "EPHEMERIS_TYPE": 0, "CLASSIFICATION_TYPE": "U", "NORAD_CAT_ID": 34672, "ELEMENT_SET_NO": 999, "REV_AT_EPOCH": 65041, "BSTAR": 0.00037825, "MEAN_MOTION_DOT": 1.085e-05, "MEAN_MOTION_DDOT": 0}, "tle": {"line1": "1 34672U 93036XS  25337.21975514  .00001085  00000+0  37825-3 0  9998", "line2": "2 34672  74.0334 323.0813 0023434  37.1980 335.8708 14.36383689650410"}}, "geometry": {"type": "Point", "coordinates": [-51.95121885018244, -36.512883590972166]}}, {"type": "Feature", "properties": {"norad_id": 34678, "name": "COSMOS 2251 DEB", "group": "cosmos-2251-debris", "lat": -31.665354775826046, "lon": 10.065873864157245, "alt_km": 801.6716299982018, "timestamp": "2025-12-04T17:48:40.559799+00:00", "meta": {"OBJECT_NAME": "COSMOS 2251 DEB", "OBJECT_ID": "1993-036XY", "EPOCH": "2025-12-04T06:47:46.133376", "MEAN_MOTION": 14.3006292, "ECCENTRICITY": 0.0024259, "INCLINATION": 74.0382, "RA_OF_ASC_NODE": 21.0674, "ARG_OF_PERICENTER": 72.9556, "MEAN_ANOMALY": 52.4173, "EPHEMERIS_TYPE": 0, "CLASSIFICATION_TYPE": "U", "NORAD_CAT_ID": 34678, "ELEMENT_SET_NO": 999, "REV_AT_EPOCH": 87258, "BSTAR": 6.0031757e-05, "MEAN_MOTION_DOT": 1.3e-06, "MEAN_MOTION_DDOT": 0}, "tle": {"line1": "1 34678U 93036XY  25338.28317284  .00000130  00000+0  60032-4 0  9993", "line2": "2 34678  74.0382  21.0674 0024259  72.9556  52.4173 14.30062920872589"}}, "geometry": {"type": "Point", "coordinates": [10.065873864157245, -31.665354775826046]}}, {"type": "Feature", "properties": {"norad_id": 34680, "name": "COSMOS 2251 DEB", "group": "cosmos-2251-debris", "lat": 73.88740594472655, "lon": -116.99302780957137, "alt_km": 688.4085017385742, "timestamp": "2025-12-04T17:48:40.559809+00:00", "meta": {"OBJECT_NAME": "COSMOS 2251 DEB", "OBJECT_ID": "1993-036YA", "EPOCH": "2025-12-02T11:16:46.526880", "MEAN_MOTION": 14.6043687, "ECCENTRICITY": 0.00070971, "INCLINATION": 74.0418, "RA_OF_ASC_NODE": 149.4617, "ARG_OF_PERICENTER": 243.0574, "MEAN_ANOMALY": 147.946, "EPHEMERIS_TYPE": 0, "CLASSIFICATION_TYPE": "U", "NORAD_CAT_ID": 34680, "ELEMENT_SET_NO": 999, "REV_AT_EPOCH": 88178, "BSTAR": 0.0013755581, "MEAN_MOTION_DOT": 6.644e-05, "MEAN_MOTION_DDOT": 0}, "tle": {"line1": "1 34680U 93036YA  25336.46998295  .00006644  00000+0  13756-2 0  9996", "line2": "2 34680  74.0418 149.4617 0007097 243.0574 147.9460 14.60436870881789"}}, "geometry": {"type": "Point", "coordinates": [-116.99302780957137, 73.88740594472655]}}]}